{"0b0176f8-6433-424d-9f95-11ea38d96769":{"Enabled":true,"ID":"0b0176f8-6433-424d-9f95-11ea38d96769","CompanyName":"Tmpa","Address":"12824 FM 244","City":"Anderson","State":"TX","Zip":77830,"Phone":"979-823-0742","Website":"texasmpa.org","Important":false,"Created":"2020-01-10T16:26:27.23435-06:00"},"2923ea1e-1fec-443c-84f3-50973fd13b7e":{"Enabled":true,"ID":"2923ea1e-1fec-443c-84f3-50973fd13b7e","CompanyName":"Goya Foods","Address":"30602 Goya Rd","City":"Brookshire","State":"TX","Zip":77423,"Phone":"713 266-9834","Website":"goya.com","Important":false,"Created":"2020-01-10T16:26:27.2690599-06:00"},"c7d962b4-0bbc-4238-bcfb-ba04efc7b459":{"Enabled":true,"ID":"c7d962b4-0bbc-4238-bcfb-ba04efc7b459","CompanyName":"Igloo Products Corporation","Address":"777 Igloo Rd","City":"Brookshire","State":"TX","Zip":77423,"Phone":"281 394-6800","Website":"igloocoolers.com","Important":false,"Created":"2020-01-10T16:26:27.2690814-06:00"},"2ebf07f6-20cf-4424-8894-e12dc139f4a0":{"Enabled":true,"ID":"2ebf07f6-20cf-4424-8894-e12dc139f4a0","CompanyName":"All Seasons Architectural Windows","Address":"1293 N Harvey Mitchell Pkwy","City":"Bryan","State":"TX","Zip":77803,"Phone":"800 444-1444","Website":"asawmfg.com","Important":false,"Created":"2020-01-10T16:26:27.2690867-06:00"},"496337ec-c5d6-4ac3-80a3-76b70ca66c87":{"Enabled":true,"ID":"496337ec-c5d6-4ac3-80a3-76b70ca66c87","CompanyName":"Prostar Industries, Inc.","Address":"1430 N Harvey Mitchell Pkwy","City":"Bryan","State":"TX","Zip":77803,"Phone":"979 779-9399","Website":"prostarind.com","Important":false,"Created":"2020-01-10T16:26:27.269091-06:00"},"23b392f0-d65c-49b0-b650-f0071d86e4d7":{"Enabled":true,"ID":"23b392f0-d65c-49b0-b650-f0071d86e4d7","CompanyName":"Axis Pipe & Tube","Address":"1451 Louis E Mikulin Rd","City":"Bryan","State":"TX","Zip":77807,"Phone":"979 599-7600","Website":"axispipeandtube.com","Important":false,"Created":"2020-01-10T16:26:27.2691918-06:00"},"41d31503-0115-4c3d-a2e8-fbfbf6e03636":{"Enabled":true,"ID":"41d31503-0115-4c3d-a2e8-fbfbf6e03636","CompanyName":"Kristen Distributing Company","Address":"8301 N Hwy 6","City":"Bryan","State":"TX","Zip":77807,"Phone":"979 775-6322","Website":"kristendistributing.com","Important":false,"Created":"2020-01-10T16:26:27.2691976-06:00"},"6dbe7cc4-6fce-4632-bea6-ef3771d49195":{"Enabled":true,"ID":"6dbe7cc4-6fce-4632-bea6-ef3771d49195","CompanyName":"Plygem New Alenco Extrusions","Address":"2870 N Harvy Mtcl Pkwy #400","City":"Bryan","State":"TX","Zip":77807,"Phone":"979 778-4400","Website":"","Important":false,"Created":"2020-01-10T16:26:27.269203-06:00"},"662bc5a4-a68a-48b2-9b11-2be69295a0a8":{"Enabled":true,"ID":"662bc5a4-a68a-48b2-9b11-2be69295a0a8","CompanyName":"Arbin Instruments","Address":"762 Peach Creek Cutoff","City":"College Station","State":"TX","Zip":77845,"Phone":"979 690-2751","Website":"arbin.com","Important":false,"Created":"2020-01-10T16:26:27.2692074-06:00"},"93ac23c8-b1f9-4cc4-b0fb-f956a5656959":{"Enabled":true,"ID":"93ac23c8-b1f9-4cc4-b0fb-f956a5656959","CompanyName":"Baylor Scott & White Medical Center","Address":"700 Scott and White Dr","City":"College Station","State":"TX","Zip":77845,"Phone":"979 207-0100","Website":"bswhealth.com","Important":false,"Created":"2020-01-10T16:26:27.269333-06:00"},"0c1b76e1-5c44-41d6-aedf-393b328b435e":{"Enabled":true,"ID":"0c1b76e1-5c44-41d6-aedf-393b328b435e","CompanyName":"CHI St. Joseph Health College Station Hospital","Address":"1604 Rock Prairie Rd","City":"College Station","State":"TX","Zip":77845,"Phone":"979 764-5100","Website":"csmedcenter.com","Important":false,"Created":"2020-01-10T16:26:27.2693396-06:00"},"f1f82b23-3e8f-474f-a228-0e1fb69722dc":{"Enabled":true,"ID":"f1f82b23-3e8f-474f-a228-0e1fb69722dc","CompanyName":"Halliburton Drillbits & Services","Address":"16548 Donwick Dr","City":"Conroe","State":"TX","Zip":77385,"Phone":"936 442-4700","Website":"halliburton.com","Important":false,"Created":"2020-01-10T16:26:27.2693441-06:00"},"df52a6c1-d10e-4587-aa80-cc2730d303fe":{"Enabled":true,"ID":"df52a6c1-d10e-4587-aa80-cc2730d303fe","CompanyName":"Gulf Winds International","Address":"4400 TX-225 STE 230","City":"Deer Park","State":"TX","Zip":77536,"Phone":"713 747-4909","Website":"gwii.com","Important":false,"Created":"2020-01-10T16:26:27.2693485-06:00"},"62fb9816-44f4-445e-8659-6efb7c4da787":{"Enabled":true,"ID":"62fb9816-44f4-445e-8659-6efb7c4da787","CompanyName":"Hexion, Inc.","Address":"5900 Hwy 225","City":"Deer Park","State":"TX","Zip":77536,"Phone":"614 986-2497","Website":"hexion.com","Important":false,"Created":"2020-01-10T16:26:27.269354-06:00"},"be23fc83-1342-4431-a986-56a500ed4248":{"Enabled":true,"ID":"be23fc83-1342-4431-a986-56a500ed4248","CompanyName":"HydroChemPSC","Address":"900 Georgia Ave","City":"Deer Park","State":"TX","Zip":77536,"Phone":"713 393-5600","Website":"hydrochem.com","Important":false,"Created":"2020-01-10T16:26:27.2693582-06:00"},"400280b3-49a6-48e3-9d36-ab9cfa2c102d":{"Enabled":true,"ID":"400280b3-49a6-48e3-9d36-ab9cfa2c102d","CompanyName":"Shell Deer Park Manufacturing","Address":"5900 TX-225","City":"Deer Park","State":"TX","Zip":77536,"Phone":"713 246-7301","Website":"shell.us","Important":false,"Created":"2020-01-10T16:26:27.269363-06:00"},"302ac8bd-722a-40c3-b7a4-c073cd274e78":{"Enabled":true,"ID":"302ac8bd-722a-40c3-b7a4-c073cd274e78","CompanyName":"The Lubrizol Corporation Deer Park","Address":"41 Tidal Rd","City":"Deer Park","State":"TX","Zip":77536,"Phone":"281 479-2851","Website":"lubrizol.com","Important":false,"Created":"2020-01-10T16:26:27.2693671-06:00"},"e1e4d743-103c-4830-9d04-6505cd979839":{"Enabled":true,"ID":"e1e4d743-103c-4830-9d04-6505cd979839","CompanyName":"UPS Industrial Services, LLC","Address":"306 Deerwood Glen Dr","City":"Deer Park","State":"TX","Zip":77536,"Phone":"281 694-6000","Website":"universalplant.com","Important":false,"Created":"2020-01-10T16:26:27.2694008-06:00"},"6d01c0cd-188b-470c-8360-3ad621f33704":{"Enabled":true,"ID":"6d01c0cd-188b-470c-8360-3ad621f33704","CompanyName":"Enjet, LLC","Address":"3801 Gti Blvd","City":"Galveston","State":"TX","Zip":77554,"Phone":"","Website":"enjet.com","Important":false,"Created":"2020-01-10T16:26:27.269406-06:00"},"f928aaeb-1507-49fc-9fe1-a0abcc60743f":{"Enabled":true,"ID":"f928aaeb-1507-49fc-9fe1-a0abcc60743f","CompanyName":"Port of Galveston","Address":"Harborside Dr","City":"Galveston","State":"TX","Zip":77554,"Phone":"409 765-9321","Website":"portofgalveston.com","Important":false,"Created":"2020-01-10T16:26:27.2694102-06:00"},"e1907e4b-9b48-4f30-bda7-a295df6e412d":{"Enabled":true,"ID":"e1907e4b-9b48-4f30-bda7-a295df6e412d","CompanyName":"Southwest Shipyard","Address":"1002 Texas Clipper Rd","City":"Galveston","State":"TX","Zip":77554,"Phone":"409 740-3755","Website":"swslp.com","Important":false,"Created":"2020-01-10T16:26:27.2694144-06:00"},"c43881b8-dea4-4505-b60a-3189eb702e3e":{"Enabled":true,"ID":"c43881b8-dea4-4505-b60a-3189eb702e3e","CompanyName":"LKQ South Texas","Address":"19423 Aldine Westfield Rd","City":"Houston","State":"TX","Zip":77073,"Phone":"800 460-8714","Website":"lkqcorp.com","Important":false,"Created":"2020-01-10T16:26:27.2694187-06:00"},"d9ed72a8-43cf-4813-8985-38dc473ee046":{"Enabled":true,"ID":"d9ed72a8-43cf-4813-8985-38dc473ee046","CompanyName":"Aviva Metals","Address":"2929 W 12th St","City":"Houston","State":"TX","Zip":77008,"Phone":"800 231-0771","Website":"avivametals.com","Important":false,"Created":"2020-01-10T16:26:27.2694234-06:00"},"caf77a74-8229-41af-89c6-e5c1715a2c6d":{"Enabled":true,"ID":"caf77a74-8229-41af-89c6-e5c1715a2c6d","CompanyName":"Arkema Inc.","Address":"2231 Haden Rd","City":"Houston","State":"TX","Zip":77015,"Phone":"713 455-1211","Website":"arkema-americas.com","Important":false,"Created":"2020-01-10T16:26:27.2694278-06:00"},"bc9a6fe1-2ef8-426c-9431-10bafe4b8472":{"Enabled":true,"ID":"bc9a6fe1-2ef8-426c-9431-10bafe4b8472","CompanyName":"GULF COAST MECHANICAL & COATINGS","Address":"2337 Wadsworth St","City":"Houston","State":"TX","Zip":77015,"Phone":"281 452-0320","Website":"gcmechanical.net","Important":false,"Created":"2020-01-10T16:26:27.269432-06:00"},"c64df455-8dad-4918-8399-da0c0a5317f9":{"Enabled":true,"ID":"c64df455-8dad-4918-8399-da0c0a5317f9","CompanyName":"Univar USA","Address":"1919 Jacintoport Blvd","City":"Houston","State":"TX","Zip":77015,"Phone":"832 386-3300","Website":"univar.com","Important":false,"Created":"2020-01-10T16:26:27.2694362-06:00"},"036fa894-63e1-4571-9d19-a64ab6378a36":{"Enabled":true,"ID":"036fa894-63e1-4571-9d19-a64ab6378a36","CompanyName":"Crown Mark Inc","Address":"10881 S Sam Houston Pkwy W","City":"Houston","State":"TX","Zip":77031,"Phone":"832 295-9500","Website":"crownmark.com","Important":false,"Created":"2020-01-10T16:26:27.2694408-06:00"},"4f70485e-94f9-45d0-b4c9-a080a8975013":{"Enabled":true,"ID":"4f70485e-94f9-45d0-b4c9-a080a8975013","CompanyName":"Hunton Distribution","Address":"16335 Central Green Blvd","City":"Houston","State":"TX","Zip":77032,"Phone":"281 486-8661","Website":"huntondistribution.com","Important":false,"Created":"2020-01-10T16:26:27.2694483-06:00"},"92542e62-546c-47c4-9499-a17997ec8056":{"Enabled":true,"ID":"92542e62-546c-47c4-9499-a17997ec8056","CompanyName":"Texas Tissue Converting LLC","Address":"1521 Greens Rd #300","City":"Houston","State":"TX","Zip":77032,"Phone":"281 821-0429","Website":"texastissue.com","Important":false,"Created":"2020-01-10T16:26:27.2694526-06:00"},"03f15f4b-849c-479b-a762-ce9afba4d30d":{"Enabled":true,"ID":"03f15f4b-849c-479b-a762-ce9afba4d30d","CompanyName":"Core Laboratories","Address":"6316 Windfern Rd","City":"Houston","State":"TX","Zip":77040,"Phone":"713 328-2673","Website":"corelab.com","Important":false,"Created":"2020-01-10T16:26:27.2694568-06:00"},"f73cda63-7038-4b29-a369-ec5252ebc5d5":{"Enabled":true,"ID":"f73cda63-7038-4b29-a369-ec5252ebc5d5","CompanyName":"Republic National Distributing Company","Address":"8045 Northcourt Rd","City":"Houston","State":"TX","Zip":77040,"Phone":"832 782-1000","Website":"rndc-usa.com","Important":false,"Created":"2020-01-10T16:26:27.2694615-06:00"},"2f9e0522-7c45-46ee-8abc-d1578a8e8c78":{"Enabled":true,"ID":"2f9e0522-7c45-46ee-8abc-d1578a8e8c78","CompanyName":"Berlin Packaging","Address":"13788 West Rd Suite 130","City":"Houston","State":"TX","Zip":77041,"Phone":"713 465-2709","Website":"berlinpackaging.com","Important":false,"Created":"2020-01-10T16:26:27.2694659-06:00"},"63ac7c56-8b24-49fd-bfd5-2baebad82393":{"Enabled":true,"ID":"63ac7c56-8b24-49fd-bfd5-2baebad82393","CompanyName":"Bray International Inc","Address":"13333 Westland E Blvd","City":"Houston","State":"TX","Zip":77041,"Phone":"281 894-5454","Website":"bray.com","Important":false,"Created":"2020-01-10T16:26:27.2694701-06:00"},"7402662d-2dd0-4eac-a1bc-816835d5cc6c":{"Enabled":true,"ID":"7402662d-2dd0-4eac-a1bc-816835d5cc6c","CompanyName":"Chem One Ltd","Address":"14140 Westfair E Dr","City":"Houston","State":"TX","Zip":77041,"Phone":"713 896-9966","Website":"chemone.com","Important":false,"Created":"2020-01-10T16:26:27.2694744-06:00"},"d40e0105-0b3a-46b8-8b0d-9daa8f79d9d6":{"Enabled":true,"ID":"d40e0105-0b3a-46b8-8b0d-9daa8f79d9d6","CompanyName":"EnerMech Mechanical Services, Inc.","Address":"14000 West Rd","City":"Houston","State":"TX","Zip":77041,"Phone":"281 477-7828","Website":"(281) 477-7828","Important":false,"Created":"2020-01-10T16:26:27.2694836-06:00"},"40f584a6-e796-446b-b279-2582abd0731c":{"Enabled":true,"ID":"40f584a6-e796-446b-b279-2582abd0731c","CompanyName":"Flow-Tek Inc","Address":"8323 N Eldridge Pkwy","City":"Houston","State":"TX","Zip":77041,"Phone":"832 912-2300","Website":"bray.com","Important":false,"Created":"2020-01-10T16:26:27.2694882-06:00"},"4da65a4b-dabf-4ad3-af09-ffeed72fb586":{"Enabled":true,"ID":"4da65a4b-dabf-4ad3-af09-ffeed72fb586","CompanyName":"Flowserve Corporation","Address":"14219 Westfair W Dr","City":"Houston","State":"TX","Zip":77041,"Phone":"281 671-1025","Website":"flowserve.com","Important":false,"Created":"2020-01-10T16:26:27.2694923-06:00"},"229b5db3-bc10-4c9d-8ba4-37cc39407fb3":{"Enabled":true,"ID":"229b5db3-bc10-4c9d-8ba4-37cc39407fb3","CompanyName":"Hodell-Natco Industries","Address":"7220 Golden Gate Dr #100","City":"Houston","State":"TX","Zip":77041,"Phone":"713 856-6800","Website":"hodell-natco.com","Important":false,"Created":"2020-01-10T16:26:27.2694965-06:00"},"8aa35532-606d-4c4b-8505-79f8694589f0":{"Enabled":true,"ID":"8aa35532-606d-4c4b-8505-79f8694589f0","CompanyName":"Industrial Piping Specialists","Address":"7755 Harms Rd","City":"Houston","State":"TX","Zip":77041,"Phone":"713 466-9101","Website":"ipipes.com","Important":false,"Created":"2020-01-10T16:26:27.269668-06:00"},"d2ff54d0-a6ab-429d-a3fb-111fef45f7b0":{"Enabled":true,"ID":"d2ff54d0-a6ab-429d-a3fb-111fef45f7b0","CompanyName":"Industrial Piping Specialists","Address":"7755 Harms Rd","City":"Houston","State":"TX","Zip":77041,"Phone":"713 466-9101","Website":"ipipes.com","Important":false,"Created":"2020-01-10T16:26:27.2696777-06:00"},"5b98121f-d76f-48c6-907f-74fdf742f68b":{"Enabled":true,"ID":"5b98121f-d76f-48c6-907f-74fdf742f68b","CompanyName":"NCI Building Systems","Address":"7301 Fairview St","City":"Houston","State":"TX","Zip":77041,"Phone":"713 466-7788","Website":"ncibuildingsystems.com","Important":false,"Created":"2020-01-10T16:26:27.2696824-06:00"},"5daf4425-0f20-490e-ad2b-ce0d364c2b2d":{"Enabled":true,"ID":"5daf4425-0f20-490e-ad2b-ce0d364c2b2d","CompanyName":"Parker PGI","Address":"16101 Vallen Dr","City":"Houston","State":"TX","Zip":77041,"Phone":"713 466-0056","Website":"pgiint.com","Important":false,"Created":"2020-01-10T16:26:27.2696868-06:00"},"81e604d3-5ede-4a6b-8558-87f191ccbc44":{"Enabled":true,"ID":"81e604d3-5ede-4a6b-8558-87f191ccbc44","CompanyName":"Precision Flamecutting & Steel, Inc.","Address":"14500 Wagg Way Rd","City":"Houston","State":"TX","Zip":77041,"Phone":"281 477-1600","Website":"pflame.com","Important":false,"Created":"2020-01-10T16:26:27.2696912-06:00"},"39eca421-709e-4ba1-b8c0-bc2031162981":{"Enabled":true,"ID":"39eca421-709e-4ba1-b8c0-bc2031162981","CompanyName":"Sparrows Group (Offshore)","Address":"6758 Northwinds Dr","City":"Houston","State":"TX","Zip":77041,"Phone":"832 467-7300","Website":"sparrowsgroup.com","Important":false,"Created":"2020-01-10T16:26:27.2696961-06:00"},"793eff1e-7720-4063-86f3-a7eb8283a872":{"Enabled":true,"ID":"793eff1e-7720-4063-86f3-a7eb8283a872","CompanyName":"Steel Supply, L.P. Northwest","Address":"14130 West Rd","City":"Houston","State":"TX","Zip":77041,"Phone":"713 991-7600","Website":"steelsupplylp.com","Important":false,"Created":"2020-01-10T16:26:27.2697036-06:00"},"cbf64539-6443-46c0-a5ef-b56f443dcc3a":{"Enabled":true,"ID":"cbf64539-6443-46c0-a5ef-b56f443dcc3a","CompanyName":"Stress Engineering Services, Inc","Address":"13800 Westfair E Dr Building 3","City":"Houston","State":"TX","Zip":77041,"Phone":"281 955-2900","Website":"stress.com","Important":false,"Created":"2020-01-10T16:26:27.2697081-06:00"},"dc2673d4-8964-4566-9a54-6a11e297ad40":{"Enabled":true,"ID":"dc2673d4-8964-4566-9a54-6a11e297ad40","CompanyName":"Thrustmaster of Texas Inc","Address":"6900 Thrustmaster Dr","City":"Houston","State":"TX","Zip":77041,"Phone":"713 937-6295","Website":"thrustmaster.net","Important":false,"Created":"2020-01-10T16:26:27.2697126-06:00"},"e83a3bff-5650-4308-9250-26288b3e8cbe":{"Enabled":true,"ID":"e83a3bff-5650-4308-9250-26288b3e8cbe","CompanyName":"TSC Manufacturing & Supply LLC","Address":"13788 West Rd suite 100","City":"Houston","State":"TX","Zip":77041,"Phone":"832 456-3900","Website":"t-s-c.com","Important":false,"Created":"2020-01-10T16:26:27.2697172-06:00"},"b5e6944a-3bf4-494e-99c2-80fa254e1623":{"Enabled":true,"ID":"b5e6944a-3bf4-494e-99c2-80fa254e1623","CompanyName":"Weatherford","Address":"11909 FM 529 Road","City":"Houston","State":"TX","Zip":77041,"Phone":"713 983-5000","Website":"weatherford.com","Important":false,"Created":"2020-01-10T16:26:27.2697214-06:00"},"37abb544-88d6-46e3-9530-15b31f43badc":{"Enabled":true,"ID":"37abb544-88d6-46e3-9530-15b31f43badc","CompanyName":"Wells Manufacturing","Address":"14425 Wagg Way Rd","City":"Houston","State":"TX","Zip":77041,"Phone":"713 690-4204","Website":"wells-mfg.net","Important":false,"Created":"2020-01-10T16:26:27.2697256-06:00"},"f8fdc4ce-48a5-46c9-b487-c9ed426aa950":{"Enabled":true,"ID":"f8fdc4ce-48a5-46c9-b487-c9ed426aa950","CompanyName":"White Tucker Company","Address":"13895 Westfair E Dr","City":"Houston","State":"TX","Zip":77041,"Phone":"281 664-7444","Website":"whitetucker.com","Important":false,"Created":"2020-01-10T16:26:27.2697299-06:00"},"418c3788-d1b5-4f93-9695-1e0141ce668e":{"Enabled":true,"ID":"418c3788-d1b5-4f93-9695-1e0141ce668e","CompanyName":"Prefco Distribution LLC","Address":"1190 West Loop N","City":"Houston","State":"TX","Zip":77055,"Phone":"713 880-0880","Website":"coloradoboxedbeef.com","Important":false,"Created":"2020-01-10T16:26:27.2697346-06:00"},"d4725692-052a-4724-bffa-9dd908f75969":{"Enabled":true,"ID":"d4725692-052a-4724-bffa-9dd908f75969","CompanyName":"C I Actuation","Address":"1619 E Richey Rd","City":"Houston","State":"TX","Zip":77073,"Phone":"800 575-6687","Website":"ciactuation.com","Important":false,"Created":"2020-01-10T16:26:27.2697387-06:00"},"8c165fc6-d353-4759-b876-e1ddc694e881":{"Enabled":true,"ID":"8c165fc6-d353-4759-b876-e1ddc694e881","CompanyName":"Comp-Tac Victory Gear","Address":"3003 Farrell Rd","City":"Houston","State":"TX","Zip":77073,"Phone":"281 209-3040","Website":"comp-tac.com","Important":false,"Created":"2020-01-10T16:26:27.2697429-06:00"},"96269876-1fc2-4b20-b89b-478b5c914f17":{"Enabled":true,"ID":"96269876-1fc2-4b20-b89b-478b5c914f17","CompanyName":"D.E.S. Rig Supply Inc","Address":"2418 Black Gold Ct","City":"Houston","State":"TX","Zip":77073,"Phone":"281 443-3377","Website":"dessupplyinc.com","Important":false,"Created":"2020-01-10T16:26:27.269747-06:00"},"78ec6997-7239-487b-b96e-ca037a6409ee":{"Enabled":true,"ID":"78ec6997-7239-487b-b96e-ca037a6409ee","CompanyName":"Drilling Tools International, Inc.","Address":"20104 E Hardy Rd","City":"Houston","State":"TX","Zip":77073,"Phone":"281 645-2010","Website":"drillingtools.com","Important":false,"Created":"2020-01-10T16:26:27.26976-06:00"},"557f2a8f-15a7-4ec3-bcb6-2bd07c112e88":{"Enabled":true,"ID":"557f2a8f-15a7-4ec3-bcb6-2bd07c112e88","CompanyName":"Fluid Systems Inc","Address":"18703 Intercontinental Crossing Dr","City":"Houston","State":"TX","Zip":77073,"Phone":"832 467-9898","Website":"fluidsystems.com","Important":false,"Created":"2020-01-10T16:26:27.2697647-06:00"},"cc09c742-2232-40c7-8d71-5b9684244fa2":{"Enabled":true,"ID":"cc09c742-2232-40c7-8d71-5b9684244fa2","CompanyName":"GSE Lining Technology, Inc.","Address":"19103 Gundle Rd","City":"Houston","State":"TX","Zip":77073,"Phone":"281 443-8564","Website":"gseworld.com","Important":false,"Created":"2020-01-10T16:26:27.2697691-06:00"},"a7505040-5e4d-491c-9eff-83886d4d237f":{"Enabled":true,"ID":"a7505040-5e4d-491c-9eff-83886d4d237f","CompanyName":"Pinnacle Rail Operations Inc","Address":"20909 W Hardy Rd","City":"Houston","State":"TX","Zip":77073,"Phone":"281 821-2431","Website":"","Important":false,"Created":"2020-01-10T16:26:27.2697732-06:00"},"81a27cae-2f38-41ce-ab70-f06d9c76172b":{"Enabled":true,"ID":"81a27cae-2f38-41ce-ab70-f06d9c76172b","CompanyName":"Vertex Downhole","Address":"20221 Carriage Point Dr","City":"Houston","State":"TX","Zip":77073,"Phone":"281 219-8100","Website":"vertexdownhole.com","Important":false,"Created":"2020-01-10T16:26:27.2697781-06:00"},"39f527ba-7327-4dfb-97b9-151d6d27639b":{"Enabled":true,"ID":"39f527ba-7327-4dfb-97b9-151d6d27639b","CompanyName":"W-Technology Inc.","Address":"19515 Oil Center Blvd #3356","City":"Houston","State":"TX","Zip":77073,"Phone":"281 209-9111","Website":"winconn.com","Important":false,"Created":"2020-01-10T16:26:27.2697823-06:00"},"f91ef9db-4769-4a23-a7c4-a9994afe4061":{"Enabled":true,"ID":"f91ef9db-4769-4a23-a7c4-a9994afe4061","CompanyName":"Draeger, Inc.","Address":"7256 S Sam Houston Pkwy W #100","City":"Houston","State":"TX","Zip":77085,"Phone":"800 437-2437","Website":"draeger.com","Important":false,"Created":"2020-01-10T16:26:27.2697864-06:00"},"d79d5e24-ca39-43f1-b363-6de8e58138d1":{"Enabled":true,"ID":"d79d5e24-ca39-43f1-b363-6de8e58138d1","CompanyName":"A-1 Freeman Moving Group","Address":"9619 Kirkton Dr","City":"Houston","State":"TX","Zip":77095,"Phone":"281 940-3643","Website":"a1freemanhouston.com","Important":false,"Created":"2020-01-10T16:26:27.2697906-06:00"},"cad0e2f0-45a1-40f4-9eb1-9d3fa029a5b6":{"Enabled":true,"ID":"cad0e2f0-45a1-40f4-9eb1-9d3fa029a5b6","CompanyName":"Castiliam Imports","Address":"22008 N Berwick Dr","City":"Houston","State":"TX","Zip":77095,"Phone":"281 550-9612","Website":"","Important":false,"Created":"2020-01-10T16:26:27.2697981-06:00"},"87003bb5-3b96-4525-9c30-4b1b1aeb0a3b":{"Enabled":true,"ID":"87003bb5-3b96-4525-9c30-4b1b1aeb0a3b","CompanyName":"Emco Wheaton USA Inc","Address":"9111 Jackrabbit Rd","City":"Houston","State":"TX","Zip":77095,"Phone":"281 856-1300","Website":"emcowheaton.com","Important":false,"Created":"2020-01-10T16:26:27.2698027-06:00"},"2b61072e-290a-4011-9991-f7445626351f":{"Enabled":true,"ID":"2b61072e-290a-4011-9991-f7445626351f","CompanyName":"Grayloc Products LLC","Address":"9342 Telge Rd","City":"Houston","State":"TX","Zip":77095,"Phone":"713 466-8853","Website":"oceaneering.com","Important":false,"Created":"2020-01-10T16:26:27.2698076-06:00"},"f91010c5-2571-42e7-9da7-e4c0881070f0":{"Enabled":true,"ID":"f91010c5-2571-42e7-9da7-e4c0881070f0","CompanyName":"Gyrodata Inc.","Address":"23000 N W Lake Dr","City":"Houston","State":"TX","Zip":77095,"Phone":"281 213-6300","Website":"gyrodata.com","Important":false,"Created":"2020-01-10T16:26:27.2698117-06:00"},"368d9872-ef2e-4e75-9733-ebcd3fe19f57":{"Enabled":true,"ID":"368d9872-ef2e-4e75-9733-ebcd3fe19f57","CompanyName":"Houston Oilfield Equipment","Address":"9669 Port Erroll Rd","City":"Houston","State":"TX","Zip":77095,"Phone":"713 466-3797","Website":"hoeinc.com","Important":false,"Created":"2020-01-10T16:26:27.2698159-06:00"},"bbe356e1-1b60-47a1-84e4-19778839c5ea":{"Enabled":true,"ID":"bbe356e1-1b60-47a1-84e4-19778839c5ea","CompanyName":"Howco","Address":"9611 Telge Rd","City":"Houston","State":"TX","Zip":77095,"Phone":"281 649-8800","Website":"howcogroup.com","Important":false,"Created":"2020-01-10T16:26:27.2698205-06:00"},"934c6c56-1fa3-4673-813e-0b5febc8343d":{"Enabled":true,"ID":"934c6c56-1fa3-4673-813e-0b5febc8343d","CompanyName":"inkDOTS","Address":"15803 Tuckerton Rd","City":"Houston","State":"TX","Zip":77095,"Phone":"281 304-7500","Website":"inkdots.com","Important":false,"Created":"2020-01-10T16:26:27.2698246-06:00"},"4a5591bb-6685-4207-9153-dca5d4e6f579":{"Enabled":true,"ID":"4a5591bb-6685-4207-9153-dca5d4e6f579","CompanyName":"International Furniture Direct","Address":"22735 N N W Lake Dr","City":"Houston","State":"TX","Zip":77095,"Phone":"713 339-3599","Website":"int-furndirect.com","Important":false,"Created":"2020-01-10T16:26:27.2698287-06:00"},"0843ab24-06c0-43ec-8b45-70cd33bb66ed":{"Enabled":true,"ID":"0843ab24-06c0-43ec-8b45-70cd33bb66ed","CompanyName":"ITD Precision","Address":"9719 Telge Rd","City":"Houston","State":"TX","Zip":77095,"Phone":"281 859-4499","Website":"itdprecision.com","Important":false,"Created":"2020-01-10T16:26:27.2698331-06:00"},"88537a4e-b330-40d8-bddc-67d8c662e5e0":{"Enabled":true,"ID":"88537a4e-b330-40d8-bddc-67d8c662e5e0","CompanyName":"Pelletizer Knives Inc","Address":"9703 Telge Rd","City":"Houston","State":"TX","Zip":77095,"Phone":"281 859-4492","Website":"pelletizerknivesinc.com","Important":false,"Created":"2020-01-10T16:26:27.2698439-06:00"},"56ab5425-98fc-4bc0-acae-957389e84510":{"Enabled":true,"ID":"56ab5425-98fc-4bc0-acae-957389e84510","CompanyName":"Stewart & Stevenson","Address":"10750 Telge Rd","City":"Houston","State":"TX","Zip":77095,"Phone":"281 345-5100","Website":"stewartandstevenson.com","Important":false,"Created":"2020-01-10T16:26:27.2698483-06:00"},"22d3a8b7-7aca-4953-b8dc-606988d693ac":{"Enabled":true,"ID":"22d3a8b7-7aca-4953-b8dc-606988d693ac","CompanyName":"Talon","Address":"10625 Telge Rd","City":"Houston","State":"TX","Zip":77095,"Phone":"281 815-1300","Website":"taloncontrols.com","Important":false,"Created":"2020-01-10T16:26:27.2698524-06:00"},"dfce182f-d70e-41c0-bdac-d5efd7432420":{"Enabled":true,"ID":"dfce182f-d70e-41c0-bdac-d5efd7432420","CompanyName":"Visual Comfort","Address":"22400 N W Lake Dr","City":"Houston","State":"TX","Zip":77095,"Phone":"713 686-5999","Website":"visualcomfort.com","Important":false,"Created":"2020-01-10T16:26:27.2698565-06:00"},"b29dfc47-f126-4644-b93f-3c79e1a8bb9b":{"Enabled":true,"ID":"b29dfc47-f126-4644-b93f-3c79e1a8bb9b","CompanyName":"Geodis Wilson USA Inc","Address":"8210 Humble Westfield Rd Suite 100","City":"Humble","State":"TX","Zip":77338,"Phone":"281 442-4700","Website":"geodis.com","Important":false,"Created":"2020-01-10T16:26:27.2698612-06:00"},"40e2baad-fab2-46f5-ba8c-6b1f6d328f30":{"Enabled":true,"ID":"40e2baad-fab2-46f5-ba8c-6b1f6d328f30","CompanyName":"Percheron LLC Corporate Office","Address":"1904 W Grand Pkwy N Suite #200","City":"Katy","State":"TX","Zip":77449,"Phone":"832 300-6400","Website":"percheronllc.com","Important":false,"Created":"2020-01-10T16:26:27.2698654-06:00"},"b2dc34e7-3388-4c20-8b89-c02f2b7effab":{"Enabled":true,"ID":"b2dc34e7-3388-4c20-8b89-c02f2b7effab","CompanyName":"Vepica","Address":"2002 N Grand Pkwy","City":"Katy","State":"TX","Zip":77449,"Phone":"713 429-1246","Website":"vepica.com","Important":false,"Created":"2020-01-10T16:26:27.2698695-06:00"},"60bc2989-ada7-4763-8210-4324b848642e":{"Enabled":true,"ID":"60bc2989-ada7-4763-8210-4324b848642e","CompanyName":"Dyna-Drill Technologies Inc.","Address":"23400 Colonial Pkwy","City":"Katy","State":"TX","Zip":77493,"Phone":"281 227-1250","Website":"dyna-drill.com","Important":false,"Created":"2020-01-10T16:26:27.2698775-06:00"},"35c2fc49-7299-43ee-b71c-43a1eaa185f8":{"Enabled":true,"ID":"35c2fc49-7299-43ee-b71c-43a1eaa185f8","CompanyName":"Schlumberger","Address":"23500 Colonial Pkwy","City":"Katy","State":"TX","Zip":77493,"Phone":"281 769-4501","Website":"","Important":false,"Created":"2020-01-10T16:26:27.2698897-06:00"},"67bf3a53-f79f-444b-a8df-ca1da0c9b89f":{"Enabled":true,"ID":"67bf3a53-f79f-444b-a8df-ca1da0c9b89f","CompanyName":"Schlumberger","Address":"23500 Colonial Pkwy","City":"Katy","State":"TX","Zip":77493,"Phone":"281 769-4501","Website":"","Important":false,"Created":"2020-01-10T16:26:27.2698948-06:00"},"98d893b7-9ba8-4162-929e-241ff65b780d":{"Enabled":true,"ID":"98d893b7-9ba8-4162-929e-241ff65b780d","CompanyName":"Air Products & Chemicals Inc","Address":"10202 Strang Rd","City":"La Porte","State":"TX","Zip":77571,"Phone":"281 476-9089","Website":"airproducts.com","Important":false,"Created":"2020-01-10T16:26:27.2698991-06:00"},"63d64860-d47e-45f2-911b-2c479eace719":{"Enabled":true,"ID":"63d64860-d47e-45f2-911b-2c479eace719","CompanyName":"Evergreen Environmental Services","Address":"704 Old Underwood Rd C","City":"La Porte","State":"TX","Zip":77571,"Phone":"281 478-5800","Website":"evergreenes.com","Important":false,"Created":"2020-01-10T16:26:27.2699033-06:00"},"a378f599-fe15-426b-844e-b3f44cd90965":{"Enabled":true,"ID":"a378f599-fe15-426b-844e-b3f44cd90965","CompanyName":"Ferrovial Services, N.A.","Address":"10845 Strang Rd","City":"La Porte","State":"TX","Zip":77571,"Phone":"281 471-3209","Website":"ferrovial.com","Important":false,"Created":"2020-01-10T16:26:27.2699076-06:00"},"4bb765e1-d449-4219-8d81-0cccab252c79":{"Enabled":true,"ID":"4bb765e1-d449-4219-8d81-0cccab252c79","CompanyName":"INTERNATIONAL COOLING TOWER INC.","Address":"407 Independence Pkwy","City":"La Porte","State":"TX","Zip":77571,"Phone":"281 479-3255","Website":"ictower.com","Important":false,"Created":"2020-01-10T16:26:27.2699122-06:00"},"28dcf479-aac3-4839-976c-fc041375fc37":{"Enabled":true,"ID":"28dcf479-aac3-4839-976c-fc041375fc37","CompanyName":"Oates Industries Inc","Address":"2900 E X St","City":"La Porte","State":"TX","Zip":77571,"Phone":"281 930-9305","Website":"oatesinc.com","Important":false,"Created":"2020-01-10T16:26:27.2699164-06:00"},"4f83af25-fb19-47ed-9ec4-9e3499099b0d":{"Enabled":true,"ID":"4f83af25-fb19-47ed-9ec4-9e3499099b0d","CompanyName":"Niagara Bottling, LLC","Address":"14810 Fairway Pines Dr","City":"Missouri City","State":"TX","Zip":77489,"Phone":"909 230-5000","Website":"niagarawater.com","Important":false,"Created":"2020-01-10T16:26:27.2699208-06:00"},"feb8e20d-cbbf-4af6-b05e-293d1324c36e":{"Enabled":true,"ID":"feb8e20d-cbbf-4af6-b05e-293d1324c36e","CompanyName":"Rich Products","Address":"14847 Fairway Pines Dr","City":"Missouri City","State":"TX","Zip":77489,"Phone":"281 835-7100","Website":"richs.com","Important":false,"Created":"2020-01-10T16:26:27.2699251-06:00"},"d6cc051a-0d90-49f4-a7a0-2a6c32704a02":{"Enabled":true,"ID":"d6cc051a-0d90-49f4-a7a0-2a6c32704a02","CompanyName":"Velan Valve Corporation","Address":"13615 S Gessner Rd","City":"Missouri City","State":"TX","Zip":77489,"Phone":"832 500-5500","Website":"velan.com","Important":false,"Created":"2020-01-10T16:26:27.2699347-06:00"},"4b68b9ca-5f6a-4eb0-9be6-c931192c8efd":{"Enabled":true,"ID":"4b68b9ca-5f6a-4eb0-9be6-c931192c8efd","CompanyName":"CForce Bottling Company","Address":"6151 TX-90","City":"Navasota","State":"TX","Zip":77868,"Phone":"936 825-1077","Website":"cforce.com","Important":false,"Created":"2020-01-10T16:26:27.2699391-06:00"},"59d9be51-cdcf-4703-a75e-293e8dfec00a":{"Enabled":true,"ID":"59d9be51-cdcf-4703-a75e-293e8dfec00a","CompanyName":"Dynalloy Industries, Inc.","Address":"25880 Hwy 6 S","City":"Navasota","State":"TX","Zip":77868,"Phone":"936 825-2532","Website":"dynalloyinc.com","Important":false,"Created":"2020-01-10T16:26:27.2699433-06:00"},"f360a32c-76e4-49a8-b25d-a772c7501a0e":{"Enabled":true,"ID":"f360a32c-76e4-49a8-b25d-a772c7501a0e","CompanyName":"Mid-South Synergy","Address":"7625 Hwy 6","City":"Navasota","State":"TX","Zip":77868,"Phone":"936 825-5100","Website":"midsouthsynergy.com","Important":false,"Created":"2020-01-10T16:26:27.2699474-06:00"},"6541466c-49ce-438a-bf6b-cb7a1065a603":{"Enabled":true,"ID":"6541466c-49ce-438a-bf6b-cb7a1065a603","CompanyName":"Sexing Technologies/STgenetics","Address":"22575 State Highway 6 South","City":"Navasota","State":"TX","Zip":77868,"Phone":"936 870-3960","Website":"stgen.com","Important":false,"Created":"2020-01-10T16:26:27.2699518-06:00"},"c36531d5-c327-4a6f-af9c-deb0dfa312fc":{"Enabled":true,"ID":"c36531d5-c327-4a6f-af9c-deb0dfa312fc","CompanyName":"INEOS Phenol","Address":"3503 Pasadena Fwy","City":"Pasadena","State":"TX","Zip":77503,"Phone":"713 920-4300","Website":"ineos.com","Important":false,"Created":"2020-01-10T16:26:27.269956-06:00"},"4de47e9d-1771-4413-87d7-d4a6796f8e8e":{"Enabled":true,"ID":"4de47e9d-1771-4413-87d7-d4a6796f8e8e","CompanyName":"American Acryl LLP","Address":"4631 Old Hwy 146 b","City":"Pasadena","State":"TX","Zip":77507,"Phone":"281 909-2600","Website":"americanacryl.com","Important":false,"Created":"2020-01-10T16:26:27.2699604-06:00"},"56ea6a7c-5a89-4f17-a76d-71da23a77f16":{"Enabled":true,"ID":"56ea6a7c-5a89-4f17-a76d-71da23a77f16","CompanyName":"MFG Chemical, LLC","Address":"9700 Bayport Blvd","City":"Pasadena","State":"TX","Zip":77507,"Phone":"281 291-2300","Website":"","Important":false,"Created":"2020-01-10T16:26:27.2699646-06:00"},"a7c1c1f7-db48-4544-ac7b-83c5aee1521a":{"Enabled":true,"ID":"a7c1c1f7-db48-4544-ac7b-83c5aee1521a","CompanyName":"Dunn Heat Exchangers, Inc.","Address":"410 21st St S","City":"Texas City","State":"TX","Zip":77590,"Phone":"409 948-1704","Website":"dunnheat.com","Important":false,"Created":"2020-01-10T16:26:27.269972-06:00"},"8d983262-f518-4f1c-a58b-786feda74676":{"Enabled":true,"ID":"8d983262-f518-4f1c-a58b-786feda74676","CompanyName":"Marathon Texas City Refinery","Address":"502 10th St S","City":"Texas City","State":"TX","Zip":77590,"Phone":"409 943-7585","Website":"marathonpetroleum.com","Important":false,"Created":"2020-01-10T16:26:27.2699767-06:00"},"4e93ea57-1d53-4a8d-9e0b-a767afcd7ee6":{"Enabled":true,"ID":"4e93ea57-1d53-4a8d-9e0b-a767afcd7ee6","CompanyName":"Oiltanking Texas City, L.P.","Address":"2800 Loop 197 S","City":"Texas City","State":"TX","Zip":77590,"Phone":"409 797-1700","Website":"oiltanking.com","Important":false,"Created":"2020-01-10T16:26:27.2699809-06:00"},"5566fd52-8c2a-4370-8139-596a0b70b040":{"Enabled":true,"ID":"5566fd52-8c2a-4370-8139-596a0b70b040","CompanyName":"Valero Texas City Refinery","Address":"1301 Loop 197 S","City":"Texas City","State":"TX","Zip":77590,"Phone":"409 945-4451","Website":"valero.com","Important":false,"Created":"2020-01-10T16:26:27.2699907-06:00"},"9041594f-2473-4fd3-88dd-dea62611611b":{"Enabled":true,"ID":"9041594f-2473-4fd3-88dd-dea62611611b","CompanyName":"AmaraCode LLC","Address":"18952","City":"Hearne","State":"Tx","Zip":0,"Phone":"9793144562","Website":"www.amaracode.com","Important":true,"Created":"2020-01-10T21:25:37.2334048-06:00"},"a2da7103-832f-4b63-a1f6-a5e3701437f5":{"Enabled":true,"ID":"a2da7103-832f-4b63-a1f6-a5e3701437f5","CompanyName":null,"Address":null,"City":null,"State":null,"Zip":0,"Phone":null,"Website":null,"Important":false,"Created":"2020-01-10T21:26:36.4143531-06:00"},"758b5841-52b6-42af-8e8f-0f3a27e990ad":{"Enabled":true,"ID":"758b5841-52b6-42af-8e8f-0f3a27e990ad","CompanyName":null,"Address":null,"City":null,"State":null,"Zip":0,"Phone":null,"Website":null,"Important":false,"Created":"2020-01-10T23:05:44.8748983-06:00"},"21324a34-dfdb-44ae-85cf-8530bc9400c8":{"Enabled":true,"ID":"21324a34-dfdb-44ae-85cf-8530bc9400c8","CompanyName":"Test","Address":"12345","City":"Hearne","State":"Tx","Zip":77859,"Phone":null,"Website":null,"Important":false,"Created":"2020-01-11T00:55:43.6294236-06:00"},"4e328749-059e-43a8-aa22-f4c92e3d1b09":{"Enabled":true,"ID":"4e328749-059e-43a8-aa22-f4c92e3d1b09","CompanyName":"abc","Address":"def","City":"Hearne","State":"tx","Zip":77859,"Phone":"555-1212","Website":"somewhere.com","Important":false,"Created":"2020-01-11T00:56:55.0376684-06:00"}}